{"type": "FeatureCollection", "features": [ {"type": "Feature", "properties": {"norad_id": 38953, "name": "BEIDOU-2 G6 (C02)", "group": "beidou", "lat": 0.5645854589713248, "lon": -113.09473720646581, "alt_km": 35804.517976361516, "timestamp": "2025-12-19T04:59:48.571237+00:00", "meta": {"OBJECT_NAME": "BEIDOU-2 G6 (C02)", "OBJECT_ID": "2012-059A", "EPOCH": "2025-12-18T19:13:36.503616", "MEAN_MOTION": 1.00269156, "ECCENTRICITY": 0.00082457, "INCLINATION": 3.9636, "RA_OF_ASC_NODE": 75.4496, "ARG_OF_PERICENTER": 292.1942, "MEAN_ANOMALY": 92.3789, "EPHEMERIS_TYPE": 0, "CLASSIFICATION_TYPE": "U", "NORAD_CAT_ID": 38953, "ELEMENT_SET_NO": 999, "REV_AT_EPOCH": 4810, "BSTAR": 0, "MEAN_MOTION_DOT": -1.53e-06, "MEAN_MOTION_DDOT": 0}, "tle": {"line1": "1 38953U 12059A   25352.80111694 -.00000153  00000+0  00000+0 0  9990", "line2": "2 38953   3.9636  75.4496 0008245 292.1942  92.3789  1.00269156 48101"}}, "geometry": {"type": "Point", "coordinates": [-113.09473720646581, 0.5645854589713248]}}, {"type": "Feature", "properties": {"norad_id": 40549, "name": "BEIDOU-3S IGSO-1S (C31)", "group": "beidou", "lat": -29.178213663472018, "lon": -90.81642420903327, "alt_km": 35874.90187273364, "timestamp": "2025-12-19T04:59:48.571251+00:00", "meta": {"OBJECT_NAME": "BEIDOU-3S IGSO-1S (C31)", "OBJECT_ID": "2015-019A", "EPOCH": "2025-12-18T19:55:38.829792", "MEAN_MOTION": 1.00292047, "ECCENTRICITY": 0.0036331, "INCLINATION": 49.5404, "RA_OF_ASC_NODE": 297.6395, "ARG_OF_PERICENTER": 194.0028, "MEAN_ANOMALY": 349.3621, "EPHEMERIS_TYPE": 0, "CLASSIFICATION_TYPE": "U", "NORAD_CAT_ID": 40549, "ELEMENT_SET_NO": 999, "REV_AT_EPOCH": 3926, "BSTAR": 0, "MEAN_MOTION_DOT": -1.83e-06, "MEAN_MOTION_DDOT": 0}, "tle": {"line1": "1 40549U 15019A   25352.83031053 -.00000183  00000+0  00000+0 0  9999", "line2": "2 40549  49.5404 297.6395 0036331 194.0028 349.3621  1.00292047 39264"}}, "geometry": {"type": "Point", "coordinates": [-90.81642420903327, -29.178213663472018]}}, {"type": "Feature", "properties": {"norad_id": 40748, "name": "BEIDOU-3S M2S (C58)", "group": "beidou", "lat": -17.192589306981276, "lon": 140.71088844186644, "alt_km": 21517.159894427878, "timestamp": "2025-12-19T04:59:48.571262+00:00", "meta": {"OBJECT_NAME": "BEIDOU-3S M2S (C58)", "OBJECT_ID": "2015-037A", "EPOCH": "2025-12-11T22:15:26.437248", "MEAN_MOTION": 1.8622897, "ECCENTRICITY": 0.00123447, "INCLINATION": 55.0397, "RA_OF_ASC_NODE": 308.4912, "ARG_OF_PERICENTER": 267.8245, "MEAN_ANOMALY": 92.025, "EPHEMERIS_TYPE": 0, "CLASSIFICATION_TYPE": "U", "NORAD_CAT_ID": 40748, "ELEMENT_SET_NO": 999, "REV_AT_EPOCH": 7063, "BSTAR": 0, "MEAN_MOTION_DOT": -8.9e-07, "MEAN_MOTION_DDOT": 0}, "tle": {"line1": "1 40748U 15037A   25345.92738932 -.00000089  00000+0  00000+0 0  9997", "line2": "2 40748  55.0397 308.4912 0012344 267.8245  92.0250  1.86228970 70636"}}, "geometry": {"type": "Point", "coordinates": [140.71088844186644, -17.192589306981276]}}, {"type": "Feature", "properties": {"norad_id": 40749, "name": "BEIDOU-3S M1S (C57)", "group": "beidou", "lat": 37.28131129297168, "lon": -19.628922225122476, "alt_km": 21514.452891859983, "timestamp": "2025-12-19T04:59:48.571274+00:00", "meta": {"OBJECT_NAME": "BEIDOU-3S M1S (C57)", "OBJECT_ID": "2015-037B", "EPOCH": "2025-12-18T01:31:18.410592", "MEAN_MOTION": 1.86254045, "ECCENTRICITY": 0.00035849, "INCLINATION": 55.0306, "RA_OF_ASC_NODE": 308.2705, "ARG_OF_PERICENTER": 0.3009, "MEAN_ANOMALY": 359.6859, "EPHEMERIS_TYPE": 0, "CLASSIFICATION_TYPE": "U", "NORAD_CAT_ID": 40749, "ELEMENT_SET_NO": 999, "REV_AT_EPOCH": 7075, "BSTAR": 0, "MEAN_MOTION_DOT": -8.6e-07, "MEAN_MOTION_DDOT": 0}, "tle": {"line1": "1 40749U 15037B   25352.06340753 -.00000086  00000+0  00000+0 0  9998", "line2": "2 40749  55.0306 308.2705 0003584   0.3009 359.6859  1.86254045 70751"}}, "geometry": {"type": "Point", "coordinates": [-19.628922225122476, 37.28131129297168]}}, {"type": "Feature", "properties": {"norad_id": 40938, "name": "BEIDOU-3S IGSO-2S (C56)", "group": "beidou", "lat": -1.502435422199707, "lon": -100.35550847690985, "alt_km": 36039.20999166643, "timestamp": "2025-12-19T04:59:48.571286+00:00", "meta": {"OBJECT_NAME": "BEIDOU-3S IGSO-2S (C56)", "OBJECT_ID": "2015-053A", "EPOCH": "2025-12-18T17:10:26.885280", "MEAN_MOTION": 1.00268888, "ECCENTRICITY": 0.00604928, "INCLINATION": 49.5013, "RA_OF_ASC_NODE": 260.935, "ARG_OF_PERICENTER": 188.6507, "MEAN_ANOMALY": 351.508, "EPHEMERIS_TYPE": 0, "CLASSIFICATION_TYPE": "U", "NORAD_CAT_ID": 40938, "ELEMENT_SET_NO": 999, "REV_AT_EPOCH": 3754, "BSTAR": 0, "MEAN_MOTION_DOT": -1.17e-06, "MEAN_MOTION_DDOT": 0}, "tle": {"line1": "1 40938U 15053A   25352.71558895 -.00000117  00000+0  00000+0 0  9991", "line2": "2 40938  49.5013 260.9350 0060492 188.6507 351.5080  1.00268888 37541"}}, "geometry": {"type": "Point", "coordinates": [-100.35550847690985, -1.502435422199707]}}, {"type": "Feature", "properties": {"norad_id": 41434, "name": "BEIDOU-2 IGSO-6 (C13)", "group": "beidou", "lat": -30.821116763255418, "lon": -119.96258317488962, "alt_km": 35534.07178829917, "timestamp": "2025-12-19T04:59:48.571297+00:00", "meta": {"OBJECT_NAME": "BEIDOU-2 IGSO-6 (C13)", "OBJECT_ID": "2016-021A", "EPOCH": "2025-12-18T14:33:38.837664", "MEAN_MOTION": 1.00292299, "ECCENTRICITY": 0.00610054, "INCLINATION": 59.9732, "RA_OF_ASC_NODE": 39.8392, "ARG_OF_PERICENTER": 230.2031, "MEAN_ANOMALY": 129.1398, "EPHEMERIS_TYPE": 0, "CLASSIFICATION_TYPE": "U", "NORAD_CAT_ID": 41434, "ELEMENT_SET_NO": 999, "REV_AT_EPOCH": 3566, "BSTAR": 0, "MEAN_MOTION_DOT": -1.41e-06, "MEAN_MOTION_DDOT": 0}, "tle": {"line1": "1 41434U 16021A   25352.60669951 -.00000141  00000+0  00000+0 0  9990", "line2": "2 41434  59.9732  39.8392 0061005 230.2031 129.1398  1.00292299 35667"}}, "geometry": {"type": "Point", "coordinates": [-119.96258317488962, -30.821116763255418]}}, {"type": "Feature", "properties": {"norad_id": 41586, "name": "BEIDOU-2 G7 (C03)", "group": "beidou", "lat": -0.7921867694932789, "lon": -86.57469341666778, "alt_km": 35806.20873876477, "timestamp": "2025-12-19T04:59:48.571309+00:00", "meta": {"OBJECT_NAME": "BEIDOU-2 G7 (C03)", "OBJECT_ID": "2016-037A", "EPOCH": "2025-12-18T22:22:54.904224", "MEAN_MOTION": 1.00272356, "ECCENTRICITY": 0.00051377, "INCLINATION": 1.7716, "RA_OF_ASC_NODE": 67.8373, "ARG_OF_PERICENTER": 3.1732, "MEAN_ANOMALY": 102.9604, "EPHEMERIS_TYPE": 0, "CLASSIFICATION_TYPE": "U", "NORAD_CAT_ID": 41586, "ELEMENT_SET_NO": 999, "REV_AT_EPOCH": 508, "BSTAR": 0, "MEAN_MOTION_DOT": -3.3e-06, "MEAN_MOTION_DDOT": 0}, "tle": {"line1": "1 41586U 16037A   25352.93257991 -.00000330  00000+0  00000+0 0  9998", "line2": "2 41586   1.7716  67.8373 0005137   3.1732 102.9604  1.00272356  5085"}}, "geometry": {"type": "Point", "coordinates": [-86.57469341666778, -0.7921867694932789]}}, {"type": "Feature", "properties": {"norad_id": 43001, "name": "BEIDOU-3 M1 (C19)", "group": "beidou", "lat": -24.7467717939867, "lon": 51.311174981897864, "alt_km": 21507.89028612387, "timestamp": "2025-12-19T04:59:48.571322+00:00", "meta": {"OBJECT_NAME": "BEIDOU-3 M1 (C19)", "OBJECT_ID": "2017-069A", "EPOCH": "2025-12-18T04:17:57.582816", "MEAN_MOTION": 1.86231385, "ECCENTRICITY": 0.00094787, "INCLINATION": 56.5315, "RA_OF_ASC_NODE": 69.054, "ARG_OF_PERICENTER": 302.4467, "MEAN_ANOMALY": 57.4905, "EPHEMERIS_TYPE": 0, "CLASSIFICATION_TYPE": "U", "NORAD_CAT_ID": 43001, "ELEMENT_SET_NO": 999, "REV_AT_EPOCH": 5523, "BSTAR": 0, "MEAN_MOTION_DOT": -6.5e-07, "MEAN_MOTION_DDOT": 0}, "tle": {"line1": "1 43001U 17069A   25352.17913869 -.00000065  00000+0  00000+0 0  9992", "line2": "2 43001  56.5315  69.0540 0009478 302.4467  57.4905  1.86231385 55235"}}, "geometry": {"type": "Point", "coordinates": [51.311174981897864, -24.7467717939867]}}, {"type": "Feature", "properties": {"norad_id": 43002, "name": "BEIDOU-3 M2 (C20)", "group": "beidou", "lat": 9.374127963294622, "lon": 75.33072250642955, "alt_km": 21513.355769705482, "timestamp": "2025-12-19T04:59:48.571335+00:00", "meta": {"OBJECT_NAME": "BEIDOU-3 M2 (C20)", "OBJECT_ID": "2017-069B", "EPOCH": "2025-12-18T15:42:26.273664", "MEAN_MOTION": 1.86230996, "ECCENTRICITY": 0.00064765, "INCLINATION": 56.5319, "RA_OF_ASC_NODE": 69.0743, "ARG_OF_PERICENTER": 330.8658, "MEAN_ANOMALY": 29.1292, "EPHEMERIS_TYPE": 0, "CLASSIFICATION_TYPE": "U", "NORAD_CAT_ID": 43002, "ELEMENT_SET_NO": 999, "REV_AT_EPOCH": 5523, "BSTAR": 0, "MEAN_MOTION_DOT": -6.1e-07, "MEAN_MOTION_DDOT": 0}, "tle": {"line1": "1 43002U 17069B   25352.65447076 -.00000061  00000+0  00000+0 0  9994", "line2": "2 43002  56.5319  69.0743 0006476 330.8658  29.1292  1.86230996 55239"}}, "geometry": {"type": "Point", "coordinates": [75.33072250642955, 9.374127963294622]}}, {"type": "Feature", "properties": {"norad_id": 43107, "name": "BEIDOU-3 M7 (C27)", "group": "beidou", "lat": -3.0197545692247476, "lon": 130.72168115963495, "alt_km": 21531.865954631772, "timestamp": "2025-12-19T04:59:48.571346+00:00", "meta": {"OBJECT_NAME": "BEIDOU-3 M7 (C27)", "OBJECT_ID": "2018-003A", "EPOCH": "2025-12-18T09:32:16.089216", "MEAN_MOTION": 1.86232527, "ECCENTRICITY": 0.00028894, "INCLINATION": 54.4914, "RA_OF_ASC_NODE": 308.6174, "ARG_OF_PERICENTER": 69.2572, "MEAN_ANOMALY": 290.7611, "EPHEMERIS_TYPE": 0, "CLASSIFICATION_TYPE": "U", "NORAD_CAT_ID": 43107, "ELEMENT_SET_NO": 999, "REV_AT_EPOCH": 5398, "BSTAR": 0, "MEAN_MOTION_DOT": -8.5e-07, "MEAN_MOTION_DDOT": 0}, "tle": {"line1": "1 43107U 18003A   25352.39740844 -.00000085  00000+0  00000+0 0  9995", "line2": "2 43107  54.4914 308.6174 0002889  69.2572 290.7611  1.86232527 53988"}}, "geometry": {"type": "Point", "coordinates": [130.72168115963495, -3.0197545692247476]}}]}